{"type": "FeatureCollection", "features": [ {"type": "Feature", "properties": {"norad_id": 66537, "name": "STARLINK-35582", "group": "last-30-days", "lat": 42.282880605765286, "lon": -166.57808425651615, "alt_km": 338.6909426873044, "timestamp": "2025-12-02T07:10:07.867612+00:00", "meta": {"OBJECT_NAME": "STARLINK-35582", "OBJECT_ID": "2025-265X", "EPOCH": "2025-12-01T20:00:01.999008", "MEAN_MOTION": 15.75026878, "ECCENTRICITY": 0.0001531, "INCLINATION": 42.9998, "RA_OF_ASC_NODE": 118.8465, "ARG_OF_PERICENTER": 268.0773, "MEAN_ANOMALY": 50.8218, "EPHEMERIS_TYPE": 0, "CLASSIFICATION_TYPE": "U", "NORAD_CAT_ID": 66537, "ELEMENT_SET_NO": 999, "REV_AT_EPOCH": 324, "BSTAR": 0.00032085, "MEAN_MOTION_DOT": 0.00049068, "MEAN_MOTION_DDOT": 0}, "tle": {"line1": "1 66537U 25265X   25335.83335647  .00049068  00000+0  32085-3 0  9991", "line2": "2 66537  42.9998 118.8465 0001531 268.0773  50.8218 15.75026878  3248"}}, "geometry": {"type": "Point", "coordinates": [-166.57808425651615, 42.282880605765286]}}, {"type": "Feature", "properties": {"norad_id": 66538, "name": "STARLINK-35577", "group": "last-30-days", "lat": 42.5399734661218, "lon": -164.00325855629129, "alt_km": 338.73665732446443, "timestamp": "2025-12-02T07:10:07.867630+00:00", "meta": {"OBJECT_NAME": "STARLINK-35577", "OBJECT_ID": "2025-265Y", "EPOCH": "2025-12-01T20:00:01.999008", "MEAN_MOTION": 15.75023164, "ECCENTRICITY": 0.0001682, "INCLINATION": 42.9999, "RA_OF_ASC_NODE": 118.8415, "ARG_OF_PERICENTER": 266.7301, "MEAN_ANOMALY": 54.0853, "EPHEMERIS_TYPE": 0, "CLASSIFICATION_TYPE": "U", "NORAD_CAT_ID": 66538, "ELEMENT_SET_NO": 999, "REV_AT_EPOCH": 324, "BSTAR": 0.00040411, "MEAN_MOTION_DOT": 0.00062012, "MEAN_MOTION_DDOT": 0}, "tle": {"line1": "1 66538U 25265Y   25335.83335647  .00062012  00000+0  40411-3 0  9998", "line2": "2 66538  42.9999 118.8415 0001682 266.7301  54.0853 15.75023164  3240"}}, "geometry": {"type": "Point", "coordinates": [-164.00325855629129, 42.5399734661218]}}, {"type": "Feature", "properties": {"norad_id": 66539, "name": "STARLINK-35697", "group": "last-30-days", "lat": 42.7373152153244, "lon": -161.43200818532287, "alt_km": 338.9443642006954, "timestamp": "2025-12-02T07:10:07.867652+00:00", "meta": {"OBJECT_NAME": "STARLINK-35697", "OBJECT_ID": "2025-265Z", "EPOCH": "2025-12-01T20:00:01.999008", "MEAN_MOTION": 15.75029925, "ECCENTRICITY": 0.0001957, "INCLINATION": 43, "RA_OF_ASC_NODE": 118.8362, "ARG_OF_PERICENTER": 273.4861, "MEAN_ANOMALY": 49.2449, "EPHEMERIS_TYPE": 0, "CLASSIFICATION_TYPE": "U", "NORAD_CAT_ID": 66539, "ELEMENT_SET_NO": 999, "REV_AT_EPOCH": 324, "BSTAR": 0.00018454, "MEAN_MOTION_DOT": 0.00027953, "MEAN_MOTION_DDOT": 0}, "tle": {"line1": "1 66539U 25265Z   25335.83335647  .00027953  00000+0  18454-3 0  9996", "line2": "2 66539  43.0000 118.8362 0001957 273.4861  49.2449 15.75029925  3246"}}, "geometry": {"type": "Point", "coordinates": [-161.43200818532287, 42.7373152153244]}}, {"type": "Feature", "properties": {"norad_id": 66540, "name": "STARLINK-35818", "group": "last-30-days", "lat": 42.8776265824648, "lon": -158.80697955655646, "alt_km": 338.66954727395023, "timestamp": "2025-12-02T07:10:07.867674+00:00", "meta": {"OBJECT_NAME": "STARLINK-35818", "OBJECT_ID": "2025-265AA", "EPOCH": "2025-12-01T20:00:01.999008", "MEAN_MOTION": 15.75040653, "ECCENTRICITY": 0.0001644, "INCLINATION": 42.9995, "RA_OF_ASC_NODE": 118.8316, "ARG_OF_PERICENTER": 282.4183, "MEAN_ANOMALY": 42.2301, "EPHEMERIS_TYPE": 0, "CLASSIFICATION_TYPE": "U", "NORAD_CAT_ID": 66540, "ELEMENT_SET_NO": 999, "REV_AT_EPOCH": 324, "BSTAR": 0.00013936, "MEAN_MOTION_DOT": 0.00020984, "MEAN_MOTION_DDOT": 0}, "tle": {"line1": "1 66540U 25265AA  25335.83335647  .00020984  00000+0  13936-3 0  9995", "line2": "2 66540  42.9995 118.8316 0001644 282.4183  42.2301 15.75040653  3249"}}, "geometry": {"type": "Point", "coordinates": [-158.80697955655646, 42.8776265824648]}}, {"type": "Feature", "properties": {"norad_id": 66541, "name": "STARLINK-35796", "group": "last-30-days", "lat": 42.957793171050646, "lon": -156.20007758062104, "alt_km": 338.71075276950614, "timestamp": "2025-12-02T07:10:07.867696+00:00", "meta": {"OBJECT_NAME": "STARLINK-35796", "OBJECT_ID": "2025-265AB", "EPOCH": "2025-12-01T20:00:01.999008", "MEAN_MOTION": 15.75068047, "ECCENTRICITY": 0.0001573, "INCLINATION": 42.9998, "RA_OF_ASC_NODE": 118.8271, "ARG_OF_PERICENTER": 279.6509, "MEAN_ANOMALY": 46.9077, "EPHEMERIS_TYPE": 0, "CLASSIFICATION_TYPE": "U", "NORAD_CAT_ID": 66541, "ELEMENT_SET_NO": 999, "REV_AT_EPOCH": 324, "BSTAR": -0.00022106, "MEAN_MOTION_DOT": -0.0003434, "MEAN_MOTION_DDOT": 0}, "tle": {"line1": "1 66541U 25265AB  25335.83335647 -.00034340  00000+0 -22106-3 0  9998", "line2": "2 66541  42.9998 118.8271 0001573 279.6509  46.9077 15.75068047  3242"}}, "geometry": {"type": "Point", "coordinates": [-156.20007758062104, 42.957793171050646]}}, {"type": "Feature", "properties": {"norad_id": 66542, "name": "STARLINK-35833", "group": "last-30-days", "lat": 42.97826845926025, "lon": -153.58400975678785, "alt_km": 338.74440672366745, "timestamp": "2025-12-02T07:10:07.867714+00:00", "meta": {"OBJECT_NAME": "STARLINK-35833", "OBJECT_ID": "2025-265AC", "EPOCH": "2025-12-01T20:00:01.999008", "MEAN_MOTION": 15.75071551, "ECCENTRICITY": 0.000158, "INCLINATION": 42.9999, "RA_OF_ASC_NODE": 118.8229, "ARG_OF_PERICENTER": 275.5438, "MEAN_ANOMALY": 52.9311, "EPHEMERIS_TYPE": 0, "CLASSIFICATION_TYPE": "U", "NORAD_CAT_ID": 66542, "ELEMENT_SET_NO": 999, "REV_AT_EPOCH": 324, "BSTAR": -0.00026807, "MEAN_MOTION_DOT": -0.00041511, "MEAN_MOTION_DDOT": 0}, "tle": {"line1": "1 66542U 25265AC  25335.83335647 -.00041511  00000+0 -26807-3 0  9999", "line2": "2 66542  42.9999 118.8229 0001580 275.5438  52.9311 15.75071551  3243"}}, "geometry": {"type": "Point", "coordinates": [-153.58400975678785, 42.97826845926025]}}, {"type": "Feature", "properties": {"norad_id": 66543, "name": "STARLINK-35315", "group": "last-30-days", "lat": 42.93916135946021, "lon": -150.98161625890435, "alt_km": 338.69125179946514, "timestamp": "2025-12-02T07:10:07.867732+00:00", "meta": {"OBJECT_NAME": "STARLINK-35315", "OBJECT_ID": "2025-265AD", "EPOCH": "2025-12-01T20:00:01.999008", "MEAN_MOTION": 15.75062842, "ECCENTRICITY": 0.0001525, "INCLINATION": 42.9999, "RA_OF_ASC_NODE": 118.8166, "ARG_OF_PERICENTER": 273.6925, "MEAN_ANOMALY": 56.6894, "EPHEMERIS_TYPE": 0, "CLASSIFICATION_TYPE": "U", "NORAD_CAT_ID": 66543, "ELEMENT_SET_NO": 999, "REV_AT_EPOCH": 313, "BSTAR": -0.00013733, "MEAN_MOTION_DOT": -0.00021541, "MEAN_MOTION_DDOT": 0}, "tle": {"line1": "1 66543U 25265AD  25335.83335647 -.00021541  00000+0 -13733-3 0  9995", "line2": "2 66543  42.9999 118.8166 0001525 273.6925  56.6894 15.75062842  3131"}}, "geometry": {"type": "Point", "coordinates": [-150.98161625890435, 42.93916135946021]}}, {"type": "Feature", "properties": {"norad_id": 66544, "name": "STARLINK-35728", "group": "last-30-days", "lat": 42.839610787954854, "lon": -148.3579679123052, "alt_km": 338.7778413856058, "timestamp": "2025-12-02T07:10:07.867753+00:00", "meta": {"OBJECT_NAME": "STARLINK-35728", "OBJECT_ID": "2025-265AE", "EPOCH": "2025-12-01T20:00:01.999008", "MEAN_MOTION": 15.75066704, "ECCENTRICITY": 0.0001577, "INCLINATION": 42.9998, "RA_OF_ASC_NODE": 118.8125, "ARG_OF_PERICENTER": 273.3129, "MEAN_ANOMALY": 59.001, "EPHEMERIS_TYPE": 0, "CLASSIFICATION_TYPE": "U", "NORAD_CAT_ID": 66544, "ELEMENT_SET_NO": 999, "REV_AT_EPOCH": 324, "BSTAR": -0.00024388, "MEAN_MOTION_DOT": -0.00037818, "MEAN_MOTION_DDOT": 0}, "tle": {"line1": "1 66544U 25265AE  25335.83335647 -.00037818  00000+0 -24388-3 0  9998", "line2": "2 66544  42.9998 118.8125 0001577 273.3129  59.0010 15.75066704  3246"}}, "geometry": {"type": "Point", "coordinates": [-148.3579679123052, 42.839610787954854]}}, {"type": "Feature", "properties": {"norad_id": 66545, "name": "SHIJIAN-30A", "group": "last-30-days", "lat": 25.37907878301188, "lon": 179.83230460575086, "alt_km": 525.7332665742706, "timestamp": "2025-12-02T07:10:07.867771+00:00", "meta": {"OBJECT_NAME": "SHIJIAN-30A", "OBJECT_ID": "2025-266A", "EPOCH": "2025-12-01T19:26:35.013408", "MEAN_MOTION": 15.15284098, "ECCENTRICITY": 0.0012734, "INCLINATION": 51.7992, "RA_OF_ASC_NODE": 24.0574, "ARG_OF_PERICENTER": 317.2402, "MEAN_ANOMALY": 42.7583, "EPHEMERIS_TYPE": 0, "CLASSIFICATION_TYPE": "U", "NORAD_CAT_ID": 66545, "ELEMENT_SET_NO": 999, "REV_AT_EPOCH": 192, "BSTAR": 0.00067083, "MEAN_MOTION_DOT": 0.00012521, "MEAN_MOTION_DDOT": 0}, "tle": {"line1": "1 66545U 25266A   25335.81012747  .00012521  00000+0  67083-3 0  9992", "line2": "2 66545  51.7992  24.0574 0012734 317.2402  42.7583 15.15284098  1923"}}, "geometry": {"type": "Point", "coordinates": [179.83230460575086, 25.37907878301188]}}, {"type": "Feature", "properties": {"norad_id": 66546, "name": "SHIJIAN-30B", "group": "last-30-days", "lat": 29.398846450091217, "lon": 175.436169025146, "alt_km": 523.3922189698169, "timestamp": "2025-12-02T07:10:07.867796+00:00", "meta": {"OBJECT_NAME": "SHIJIAN-30B", "OBJECT_ID": "2025-266B", "EPOCH": "2025-12-01T19:28:05.927808", "MEAN_MOTION": 15.15338455, "ECCENTRICITY": 0.0010406, "INCLINATION": 51.7975, "RA_OF_ASC_NODE": 24.0627, "ARG_OF_PERICENTER": 320.1473, "MEAN_ANOMALY": 39.8738, "EPHEMERIS_TYPE": 0, "CLASSIFICATION_TYPE": "U", "NORAD_CAT_ID": 66546, "ELEMENT_SET_NO": 999, "REV_AT_EPOCH": 192, "BSTAR": 0.00077472, "MEAN_MOTION_DOT": 0.00014527, "MEAN_MOTION_DDOT": 0}, "tle": {"line1": "1 66546U 25266B   25335.81117972  .00014527  00000+0  77472-3 0  9990", "line2": "2 66546  51.7975  24.0627 0010406 320.1473  39.8738 15.15338455  1925"}}, "geometry": {"type": "Point", "coordinates": [175.436169025146, 29.398846450091217]}}]}